[
    {
        "Altitude(m)": 558271.150000613,
        "Argument of Periapsis(deg)": 0.026491964442854003,
        "Eccentricity": 0.0,
        "Inclination(deg)": 53.0,
        "Latitude(deg)": 46.03071544861445,
        "Longitude(deg)": 47.792437360647874,
        "Mean Anomaly(deg)": 64.00277147031036,
        "RAAN(deg)": 99.96057347411208,
        "Satellite Name": "Starlink Shell 1 441",
        "Satellite Number": 441,
        "Semi-Major Axis(m)": 6931778.249405717,
        "Time(s)": 760
    },
    {
        "Altitude(m)": 558342.2702722994,
        "Argument of Periapsis(deg)": 0.02684054292236524,
        "Eccentricity": 0.0,
        "Inclination(deg)": 53.0,
        "Latitude(deg)": 46.34373181503433,
        "Longitude(deg)": 48.53413187706122,
        "Mean Anomaly(deg)": 64.62960267386707,
        "RAAN(deg)": 99.9600547040346,
        "Satellite Name": "Starlink Shell 1 441",
        "Satellite Number": 441,
        "Semi-Major Axis(m)": 6931778.249405717,
        "Time(s)": 770
    },
    {
        "Altitude(m)": 558412.2693531738,
        "Argument of Periapsis(deg)": 0.027189121401876473,
        "Eccentricity": 0.0,
        "Inclination(deg)": 53.0,
        "Latitude(deg)": 46.65131027866625,
        "Longitude(deg)": 49.284728025450725,
        "Mean Anomaly(deg)": 65.25643387742377,
        "RAAN(deg)": 99.95953593395713,
        "Satellite Name": "Starlink Shell 1 441",
        "Satellite Number": 441,
        "Semi-Major Axis(m)": 6931778.249405717,
        "Time(s)": 780
    },
    {
        "Altitude(m)": 558481.1039050507,
        "Argument of Periapsis(deg)": 0.02753769988138771,
        "Eccentricity": 0.0,
        "Inclination(deg)": 53.0,
        "Latitude(deg)": 46.95333129512674,
        "Longitude(deg)": 50.04426344225097,
        "Mean Anomaly(deg)": 65.8832650809805,
        "RAAN(deg)": 99.95901716387965,
        "Satellite Name": "Starlink Shell 1 441",
        "Satellite Number": 441,
        "Semi-Major Axis(m)": 6931778.249405717,
        "Time(s)": 790
    },
    {
        "Altitude(m)": 558548.7313861091,
        "Argument of Periapsis(deg)": 0.02788627836089895,
        "Eccentricity": 0.0,
        "Inclination(deg)": 53.0,
        "Latitude(deg)": 47.24967419256578,
        "Longitude(deg)": 50.81276644508952,
        "Mean Anomaly(deg)": 66.5100962845372,
        "RAAN(deg)": 99.95849839380217,
        "Satellite Name": "Starlink Shell 1 441",
        "Satellite Number": 441,
        "Semi-Major Axis(m)": 6931778.249405717,
        "Time(s)": 800
    },
    {
        "Altitude(m)": 558615.1100719975,
        "Argument of Periapsis(deg)": 0.02823485684041019,
        "Eccentricity": 0.0,
        "Inclination(deg)": 53.0,
        "Latitude(deg)": 47.54021728828293,
        "Longitude(deg)": 51.590255985081384,
        "Mean Anomaly(deg)": 67.13692748809393,
        "RAAN(deg)": 99.9579796237247,
        "Satellite Name": "Starlink Shell 1 441",
        "Satellite Number": 441,
        "Semi-Major Axis(m)": 6931778.249405717,
        "Time(s)": 810
    },
    {
        "Altitude(m)": 558680.1990765098,
        "Argument of Periapsis(deg)": 0.028583435319921423,
        "Eccentricity": 0.0,
        "Inclination(deg)": 53.0,
        "Latitude(deg)": 47.824838015901236,
        "Longitude(deg)": 52.37674159418129,
        "Mean Anomaly(deg)": 67.76375869165066,
        "RAAN(deg)": 99.95746085364725,
        "Satellite Name": "Starlink Shell 1 441",
        "Satellite Number": 441,
        "Semi-Major Axis(m)": 6931778.249405717,
        "Time(s)": 820
    },
    {
        "Altitude(m)": 558743.9583718432,
        "Argument of Periapsis(deg)": 0.028932013799432665,
        "Eccentricity": 0.0,
        "Inclination(deg)": 53.0,
        "Latitude(deg)": 48.103413063350054,
        "Longitude(deg)": 53.1722218174857,
        "Mean Anomaly(deg)": 68.39058989520737,
        "RAAN(deg)": 99.95694208356976,
        "Satellite Name": "Starlink Shell 1 441",
        "Satellite Number": 441,
        "Semi-Major Axis(m)": 6931778.249405717,
        "Time(s)": 830
    },
    {
        "Altitude(m)": 558806.34880839,
        "Argument of Periapsis(deg)": 0.029280592278943897,
        "Eccentricity": 0.0,
        "Inclination(deg)": 53.0,
        "Latitude(deg)": 48.375818521864055,
        "Longitude(deg)": 53.9766841592922,
        "Mean Anomaly(deg)": 69.01742109876407,
        "RAAN(deg)": 99.95642331349228,
        "Satellite Name": "Starlink Shell 1 441",
        "Satellite Number": 441,
        "Semi-Major Axis(m)": 6931778.249405717,
        "Time(s)": 840
    },
    {
        "Altitude(m)": 558867.3321341123,
        "Argument of Periapsis(deg)": 0.029629170758455132,
        "Eccentricity": 0.0,
        "Inclination(deg)": 53.0,
        "Latitude(deg)": 48.64193004614447,
        "Longitude(deg)": 54.79010503340012,
        "Mean Anomaly(deg)": 69.64425230232078,
        "RAAN(deg)": 99.95590454341482,
        "Satellite Name": "Starlink Shell 1 441",
        "Satellite Number": 441,
        "Semi-Major Axis(m)": 6931778.249405717,
        "Time(s)": 850
    },
    {
        "Altitude(m)": 558926.8710134156,
        "Argument of Periapsis(deg)": 0.02997774923796637,
        "Eccentricity": 0.0,
        "Inclination(deg)": 53.0,
        "Latitude(deg)": 48.90162302576418,
        "Longitude(deg)": 55.61244804033083,
        "Mean Anomaly(deg)": 70.2710835058775,
        "RAAN(deg)": 99.95538577333734,
        "Satellite Name": "Starlink Shell 1 441",
        "Satellite Number": 441,
        "Semi-Major Axis(m)": 6931778.249405717,
        "Time(s)": 860
    },
    {
        "Altitude(m)": 558984.9290455804,
        "Argument of Periapsis(deg)": 0.030326327717477602,
        "Eccentricity": 0.0,
        "Inclination(deg)": 53.0,
        "Latitude(deg)": 49.15477276783452,
        "Longitude(deg)": 56.44366477783614,
        "Mean Anomaly(deg)": 70.8979147094342,
        "RAAN(deg)": 99.95486700325986,
        "Satellite Name": "Starlink Shell 1 441",
        "Satellite Number": 441,
        "Semi-Major Axis(m)": 6931778.249405717,
        "Time(s)": 870
    },
    {
        "Altitude(m)": 559041.4707827284,
        "Argument of Periapsis(deg)": 0.030674906196988847,
        "Eccentricity": 0.0,
        "Inclination(deg)": 53.0,
        "Latitude(deg)": 49.40125469086239,
        "Longitude(deg)": 57.28369314598636,
        "Mean Anomaly(deg)": 71.52474591299092,
        "RAAN(deg)": 99.95434823318239,
        "Satellite Name": "Starlink Shell 1 441",
        "Satellite Number": 441,
        "Semi-Major Axis(m)": 6931778.249405717,
        "Time(s)": 880
    },
    {
        "Altitude(m)": 559096.4617472576,
        "Argument of Periapsis(deg)": 0.031023484676500086,
        "Eccentricity": 0.0,
        "Inclination(deg)": 53.0,
        "Latitude(deg)": 49.640944529651094,
        "Longitude(deg)": 58.13245735373374,
        "Mean Anomaly(deg)": 72.15157711654764,
        "RAAN(deg)": 99.95382946310492,
        "Satellite Name": "Starlink Shell 1 441",
        "Satellite Number": 441,
        "Semi-Major Axis(m)": 6931778.249405717,
        "Time(s)": 890
    },
    {
        "Altitude(m)": 559149.8684488526,
        "Argument of Periapsis(deg)": 0.03137206315601132,
        "Eccentricity": 0.0,
        "Inclination(deg)": 53.0,
        "Latitude(deg)": 49.873718550998476,
        "Longitude(deg)": 58.989867950670465,
        "Mean Anomaly(deg)": 72.77840832010435,
        "RAAN(deg)": 99.95331069302745,
        "Satellite Name": "Starlink Shell 1 441",
        "Satellite Number": 441,
        "Semi-Major Axis(m)": 6931778.249405717,
        "Time(s)": 900
    },
    {
        "Altitude(m)": 559201.6584009306,
        "Argument of Periapsis(deg)": 0.03172064163552255,
        "Eccentricity": 0.0,
        "Inclination(deg)": 53.0,
        "Latitude(deg)": 50.099453779847494,
        "Longitude(deg)": 59.85582037599319,
        "Mean Anomaly(deg)": 73.4052395236611,
        "RAAN(deg)": 99.95279192294998,
        "Satellite Name": "Starlink Shell 1 441",
        "Satellite Number": 441,
        "Semi-Major Axis(m)": 6931778.249405717,
        "Time(s)": 910
    },
    {
        "Altitude(m)": 559251.8001366336,
        "Argument of Periapsis(deg)": 0.0320692201150338,
        "Eccentricity": 0.0,
        "Inclination(deg)": 53.0,
        "Latitude(deg)": 50.31802823544335,
        "Longitude(deg)": 60.73019505547497,
        "Mean Anomaly(deg)": 74.0320707272178,
        "RAAN(deg)": 99.95227315287251,
        "Satellite Name": "Starlink Shell 1 441",
        "Satellite Number": 441,
        "Semi-Major Axis(m)": 6931778.249405717,
        "Time(s)": 920
    },
    {
        "Altitude(m)": 559300.2632242787,
        "Argument of Periapsis(deg)": 0.032417798594545036,
        "Eccentricity": 0.0,
        "Inclination(deg)": 53.0,
        "Latitude(deg)": 50.52932117693655,
        "Longitude(deg)": 61.61285753873143,
        "Mean Anomaly(deg)": 74.6589019307745,
        "RAAN(deg)": 99.95175438279503,
        "Satellite Name": "Starlink Shell 1 441",
        "Satellite Number": 441,
        "Semi-Major Axis(m)": 6931778.249405717,
        "Time(s)": 930
    },
    {
        "Altitude(m)": 559347.0182822986,
        "Argument of Periapsis(deg)": 0.03276637707405627,
        "Eccentricity": 0.0,
        "Inclination(deg)": 53.0,
        "Latitude(deg)": 50.733213357756235,
        "Longitude(deg)": 62.503657169126946,
        "Mean Anomaly(deg)": 75.28573313433121,
        "RAAN(deg)": 99.95123561271755,
        "Satellite Name": "Starlink Shell 1 441",
        "Satellite Number": 441,
        "Semi-Major Axis(m)": 6931778.249405717,
        "Time(s)": 940
    }
]